QIANFAN-238             
1 69867U 26155V   26196.78366213  .00000238  00000+0  91828-4 0  9999
2 69867  89.0066  60.8792 0030158 221.8897 137.9990 14.26784923  1468
CZ-8A R/B               
1 69868U 26155W   26196.84023581  .00000058  00000+0  97498-5 0  9995
2 69868  88.9659  60.8202 0105931 100.6462 260.6695 14.48269607  1484
STARLINK-37886          
1 69943U 26157A   26196.83335647 -.02009890  00000+0 -75446-2 0  9992
2 69943  53.1608 292.7013 0001031  42.8091  56.4050 15.89935146  2259
STARLINK-37937          
1 69944U 26157B   26196.83335647 -.01994055  00000+0 -74553-2 0  9996
2 69944  53.1607 292.6987 0000948  59.2754  41.2152 15.89990146  2258
STARLINK-37903          
1 69945U 26157C   26196.83335647 -.01947641  00000+0 -72780-2 0  9996
2 69945  53.1608 292.6817 0001096  35.3238  73.3026 15.90456597  2254
STARLINK-37905          
1 69946U 26157D   26196.83335647 -.02283119  13858-2 -70335-2 0  9993
2 69946  53.1606 292.6550 0001262  64.5508  56.8997 15.91291435  2258
STARLINK-37904          
1 69947U 26157E   26196.83335647 -.02261263  13630-2 -69090-2 0  9994
2 69947  53.1604 292.6503 0001049  44.9954  78.7013 15.91449647  2257
STARLINK-37891          
1 69948U 26157F   26196.83335647 -.02285675  13928-2 -69399-2 0  9990
2 69948  53.1604 292.6428 0001302  53.0174  74.2988 15.91573167  2258
STARLINK-37923          
1 69949U 26157G   26196.83335647 -.02276860  13925-2 -66744-2 0  9995
2 69949  53.1605 292.6192 0001205  54.5370  84.1253 15.92250474  2253
STARLINK-37895          
1 69950U 26157H   26196.83335647 -.02272980  13920-2 -65674-2 0  9992
2 69950  53.1603 292.6087 0001389  68.2213  75.4282 15.92526890  2250
STARLINK-37841          
1 69951U 26157J   26196.83335647 -.02291591  14203-2 -64729-2 0  9997
2 69951  53.1603 292.5947 0001350  69.9161  80.4867 15.92961689  2257
STARLINK-37899          
1 69952U 26157K   26196.83335647 -.02281845  14153-2 -63010-2 0  9995
2 69952  53.1602 292.5788 0001145  56.6680 101.3043 15.93391755  2252
STARLINK-37900          
1 69953U 26157L   26196.83335647 -.02265200  13976-2 -62131-2 0  9998
2 69953  53.1601 292.5743 0001197  57.1161 103.0786 15.93517697  2258
STARLINK-37882          
1 69954U 26157M   26196.83335647 -.02242377  13769-2 -60184-2 0  9995
2 69954  53.1600 292.5609 0001140  56.9000 109.6465 15.93925643  2256
STARLINK-37928          
1 69955U 26157N   26196.83335647 -.02267843  14062-2 -61003-2 0  9999
2 69955  53.1600 292.5575 0001165  57.5989 110.7176 15.93886078  2259
STARLINK-37824          
1 69956U 26157P   26196.83335647 -.02265622  14041-2 -60836-2 0  9993
2 69956  53.1600 292.5558 0001182  57.1346 111.9241 15.93918959  2253
STARLINK-37919          
1 69957U 26157Q   26196.83335647 -.02272857  14124-2 -61095-2 0  9992
2 69957  53.1600 292.5529 0001341  71.7910  98.6790 15.93899312  2259
STARLINK-37964          
1 69958U 26157R   26196.83335647 -.02245894  13846-2 -59514-2 0  9997
2 69958  53.1599 292.5453 0001335  74.9418  99.0983 15.94165872  2251
STARLINK-37907          
1 69959U 26157S   26196.83335647 -.02228430  13694-2 -57928-2 0  9993
2 69959  53.1598 292.5342 0001314  67.6181 111.7700 15.94524364  2255
STARLINK-37901          
1 69960U 26157T   26196.83335647 -.02229985  13743-2 -57340-2 0  9994
2 69960  53.1597 292.5258 0001369  75.1947 108.2438 15.94728018  2257
STARLINK-37910          
1 69961U 26157U   26196.83335647 -.02231114  13806-2 -56365-2 0  9998
2 69961  53.1596 292.5136 0001270  76.4766 112.8693 15.95057101  2259
STARLINK-37925          
1 69962U 26157V   26196.83335647 -.02231108  13811-2 -56267-2 0  9999
2 69962  53.1594 292.5101 0001273  72.3945 118.6022 15.95089308  2251
STARLINK-37931          
1 69963U 26157W   26196.83335647 -.02255121  14107-2 -56666-2 0  9993
2 69963  53.1594 292.5033 0001034  63.5587 130.7246 15.95159777  2256
STARLINK-37914          
1 69964U 26157X   26196.83335647 -.02245804  14099-2 -54440-2 0  9999
2 69964  53.1594 292.4826 0001114  60.7727 143.3809 15.95823312  2258
STARLINK-37840          
1 69965U 26157Y   26196.83335647 -.02253825  14233-2 -53928-2 0  9992
2 69965  53.1594 292.4731 0001049  59.8203 148.8481 15.96063280  2256
STARLINK-37894          
1 69966U 26157Z   26196.83335647 -.02263768  14355-2 -54146-2 0  9998
2 69966  53.1592 292.4683 0001076  86.8793 124.0325 15.96070946  2255
STARLINK-37875          
1 69967U 26157AA  26196.83335647 -.02239219  14114-2 -52531-2 0  9992
2 69967  53.1591 292.4568 0001112  69.9135 146.4979 15.96423863  2253
STARLINK-36218          
1 69968U 26157AB  26196.83335647 -.02170659  13371-2 -49601-2 0  9993
2 69968  53.1589 292.4457 0001046  64.5303 157.1024 15.96897159  1906
STARLINK-37921          
1 69969U 26157AC  26196.83335647 -.02168446  13434-2 -47966-2 0  9997
2 69969  53.1589 292.4231 0001420  64.8920 167.5624 15.97484546  2254
