OBJECT_NAME,OBJECT_ID,EPOCH,MEAN_MOTION,ECCENTRICITY,INCLINATION,RA_OF_ASC_NODE,ARG_OF_PERICENTER,MEAN_ANOMALY,EPHEMERIS_TYPE,CLASSIFICATION_TYPE,NORAD_CAT_ID,ELEMENT_SET_NO,REV_AT_EPOCH,BSTAR,MEAN_MOTION_DOT,MEAN_MOTION_DDOT
QIANFAN-238,2026-155V,2026-07-15T18:48:28.408032,14.26784923,.0030158,89.0066,60.8792,221.8897,137.9990,0,U,69867,999,146,.91828E-4,.238E-5,0
CZ-8A R/B,2026-155W,2026-07-15T20:09:56.373984,14.48269607,.0105931,88.9659,60.8202,100.6462,260.6695,0,U,69868,999,148,.97498E-5,.58E-6,0
STARLINK-37886,2026-157A,2026-07-15T20:00:01.999008,15.89935146,.0001031,53.1608,292.7013,42.8091,56.4050,0,U,69943,999,225,-.75446E-2,-.200989E-1,0
STARLINK-37937,2026-157B,2026-07-15T20:00:01.999008,15.89990146,.0000948,53.1607,292.6987,59.2754,41.2152,0,U,69944,999,225,-.74553E-2,-.1994055E-1,0
STARLINK-37903,2026-157C,2026-07-15T20:00:01.999008,15.90456597,.0001096,53.1608,292.6817,35.3238,73.3026,0,U,69945,999,225,-.7278E-2,-.1947641E-1,0
STARLINK-37905,2026-157D,2026-07-15T20:00:01.999008,15.91291435,.0001262,53.1606,292.6550,64.5508,56.8997,0,U,69946,999,225,-.70335E-2,-.2283119E-1,.13858E-2
STARLINK-37904,2026-157E,2026-07-15T20:00:01.999008,15.91449647,.0001049,53.1604,292.6503,44.9954,78.7013,0,U,69947,999,225,-.6909E-2,-.2261263E-1,.1363E-2
STARLINK-37891,2026-157F,2026-07-15T20:00:01.999008,15.91573167,.0001302,53.1604,292.6428,53.0174,74.2988,0,U,69948,999,225,-.69399E-2,-.2285675E-1,.13928E-2
STARLINK-37923,2026-157G,2026-07-15T20:00:01.999008,15.92250474,.0001205,53.1605,292.6192,54.5370,84.1253,0,U,69949,999,225,-.66744E-2,-.227686E-1,.13925E-2
STARLINK-37895,2026-157H,2026-07-15T20:00:01.999008,15.92526890,.0001389,53.1603,292.6087,68.2213,75.4282,0,U,69950,999,225,-.65674E-2,-.227298E-1,.1392E-2
STARLINK-37841,2026-157J,2026-07-15T20:00:01.999008,15.92961689,.000135,53.1603,292.5947,69.9161,80.4867,0,U,69951,999,225,-.64729E-2,-.2291591E-1,.14203E-2
STARLINK-37899,2026-157K,2026-07-15T20:00:01.999008,15.93391755,.0001145,53.1602,292.5788,56.6680,101.3043,0,U,69952,999,225,-.6301E-2,-.2281845E-1,.14153E-2
STARLINK-37900,2026-157L,2026-07-15T20:00:01.999008,15.93517697,.0001197,53.1601,292.5743,57.1161,103.0786,0,U,69953,999,225,-.62131E-2,-.22652E-1,.13976E-2
STARLINK-37882,2026-157M,2026-07-15T20:00:01.999008,15.93925643,.000114,53.1600,292.5609,56.9000,109.6465,0,U,69954,999,225,-.60184E-2,-.2242377E-1,.13769E-2
STARLINK-37928,2026-157N,2026-07-15T20:00:01.999008,15.93886078,.0001165,53.1600,292.5575,57.5989,110.7176,0,U,69955,999,225,-.61003E-2,-.2267843E-1,.14062E-2
STARLINK-37824,2026-157P,2026-07-15T20:00:01.999008,15.93918959,.0001182,53.1600,292.5558,57.1346,111.9241,0,U,69956,999,225,-.60836E-2,-.2265622E-1,.14041E-2
STARLINK-37919,2026-157Q,2026-07-15T20:00:01.999008,15.93899312,.0001341,53.1600,292.5529,71.7910,98.6790,0,U,69957,999,225,-.61095E-2,-.2272857E-1,.14124E-2
STARLINK-37964,2026-157R,2026-07-15T20:00:01.999008,15.94165872,.0001335,53.1599,292.5453,74.9418,99.0983,0,U,69958,999,225,-.59514E-2,-.2245894E-1,.13846E-2
STARLINK-37907,2026-157S,2026-07-15T20:00:01.999008,15.94524364,.0001314,53.1598,292.5342,67.6181,111.7700,0,U,69959,999,225,-.57928E-2,-.222843E-1,.13694E-2
STARLINK-37901,2026-157T,2026-07-15T20:00:01.999008,15.94728018,.0001369,53.1597,292.5258,75.1947,108.2438,0,U,69960,999,225,-.5734E-2,-.2229985E-1,.13743E-2
STARLINK-37910,2026-157U,2026-07-15T20:00:01.999008,15.95057101,.000127,53.1596,292.5136,76.4766,112.8693,0,U,69961,999,225,-.56365E-2,-.2231114E-1,.13806E-2
STARLINK-37925,2026-157V,2026-07-15T20:00:01.999008,15.95089308,.0001273,53.1594,292.5101,72.3945,118.6022,0,U,69962,999,225,-.56267E-2,-.2231108E-1,.13811E-2
STARLINK-37931,2026-157W,2026-07-15T20:00:01.999008,15.95159777,.0001034,53.1594,292.5033,63.5587,130.7246,0,U,69963,999,225,-.56666E-2,-.2255121E-1,.14107E-2
STARLINK-37914,2026-157X,2026-07-15T20:00:01.999008,15.95823312,.0001114,53.1594,292.4826,60.7727,143.3809,0,U,69964,999,225,-.5444E-2,-.2245804E-1,.14099E-2
STARLINK-37840,2026-157Y,2026-07-15T20:00:01.999008,15.96063280,.0001049,53.1594,292.4731,59.8203,148.8481,0,U,69965,999,225,-.53928E-2,-.2253825E-1,.14233E-2
STARLINK-37894,2026-157Z,2026-07-15T20:00:01.999008,15.96070946,.0001076,53.1592,292.4683,86.8793,124.0325,0,U,69966,999,225,-.54146E-2,-.2263768E-1,.14355E-2
STARLINK-37875,2026-157AA,2026-07-15T20:00:01.999008,15.96423863,.0001112,53.1591,292.4568,69.9135,146.4979,0,U,69967,999,225,-.52531E-2,-.2239219E-1,.14114E-2
STARLINK-36218,2026-157AB,2026-07-15T20:00:01.999008,15.96897159,.0001046,53.1589,292.4457,64.5303,157.1024,0,U,69968,999,190,-.49601E-2,-.2170659E-1,.13371E-2
STARLINK-37921,2026-157AC,2026-07-15T20:00:01.999008,15.97484546,.000142,53.1589,292.4231,64.8920,167.5624,0,U,69969,999,225,-.47966E-2,-.2168446E-1,.13434E-2
